satname,norad_id,inclination_deg,eccentricity,mean_motion_rev_per_day,perigee_km,apogee_km,l1,l2
STARLINK-1216,45185,53.1568,0.0001052,15.30175037,474.56862497211023,476.0105859298965,1 45185U 20012H   26095.78465855 -.00004828  00000+0 -15110-3 0  9992,2 45185  53.1568 273.3755 0001052  87.3119 272.8002 15.30175037339044
STARLINK-1225,45187,53.1578,0.0001157,15.30211611,474.3874724621064,475.97333010876446,1 45187U 20012K   26095.78156576  .00009698  00000+0  33899-3 0  9993,2 45187  53.1578 273.8309 0001157  85.8853 274.2280 15.30211611339088
STARLINK-1230,45189,53.1566,9.21e-05,15.30193332,474.6037833784467,475.8661744969668,1 45189U 20012M   26095.92167655 -.00001403  00000+0 -35269-4 0  9993,2 45189  53.1566 273.2369 0000921  80.2098 279.9007 15.30193332336338
STARLINK-1234,45190,53.0421,0.0007861,15.66904838,362.46306933046617,373.06897806432426,1 45190U 20012N   26095.53877212  .00068091  00000+0  62958-3 0  9997,2 45190  53.0421 193.5376 0007861  15.0723 345.0525 15.66904838340089
STARLINK-1269,45197,53.1566,8.46e-05,15.30195552,474.648555669095,475.80814508638014,1 45197U 20012V   26095.91851671  .00007100  00000+0  25164-3 0  9999,2 45197  53.1566 273.1122 0000846 102.2437 257.8659 15.30195552339080
STARLINK-1154,45198,53.0452,0.000334,15.50856064,411.95670544832683,416.4940035011159,1 45198U 20012W   26096.00002315  .00093210  00000+0  15752-2 0  9992,2 45198  53.0452 239.2813 0003340 214.9762 200.5479 15.50856064  5919
STARLINK-1199,45201,53.1583,0.0001564,15.30217929,474.0896812885203,476.2333930709501,1 45201U 20012Z   26095.82248845  .00028282  00000+0  96283-3 0  9992,2 45201  53.1583 257.8043 0001564  81.3085 278.8093 15.30217929339314
STARLINK-1209,45206,53.0432,0.0010739,15.5658181,390.28197795057076,404.834816524758,1 45206U 20012AE  26096.25002315  .00170578  00000+0  23090-2 0  9996,2 45206  53.0432 200.4655 0010739 359.2951 235.2537 15.56581810  5857
STARLINK-1231,45212,53.0376,0.0003077,15.23576339,492.94885850363426,497.1786262404912,1 45212U 20012AL  26095.86079568  .00057769  00000+0  23791-2 0  9997,2 45212  53.0376 250.7708 0003077 212.7089 147.3717 15.23576339339363
STARLINK-1271,45217,53.1577,0.0001274,15.30201068,474.3387639183029,476.0849972130718,1 45217U 20012AR  26095.82038672  .00009451  00000+0  33080-3 0  9997,2 45217  53.1577 257.9383 0001274  87.7779 272.3368 15.30201068339311
STARLINK-1191,45222,53.1572,0.0002571,15.33039844,464.9890789952342,468.50871932458267,1 45222U 20012AW  26095.75454263  .00083405  00000+0  25598-2 0  9998,2 45222  53.1572 232.8870 0002571 335.7989  24.2892 15.33039844339663
STARLINK-1212,45223,53.0447,0.0004331,15.57869445,390.89137602274604,396.7572489116046,1 45223U 20012AX  26096.25002315  .00187423  00000+0  24169-2 0  9990,2 45223  53.0447 216.8885 0004331 279.8213 164.8041 15.57869445  5869
STARLINK-1215,45225,53.1595,0.0001508,15.30187825,474.21793104175777,476.2849129898377,1 45225U 20012AZ  26095.89195865  .00003338  00000+0  12483-3 0  9993,2 45225  53.1595 231.9502 0001508  59.1476 300.9673 15.30187825339649
STARLINK-1221,45227,53.0635,0.0003745,15.43003376,434.6987190210384,439.8034446943502,1 45227U 20012BB  26096.12554774  .00018403  00000+0  41931-3 0  9999,2 45227  53.0635 139.5017 0003745  84.6187 275.5245 15.43003376340945
STARLINK-1222,45228,53.0549,0.0001563,15.51310882,411.8362473616271,413.95912480449624,1 45228U 20012BC  26096.01749201  .00029100  00000+0  49320-3 0  9995,2 45228  53.0549 211.6168 0001563 159.0616 201.0457 15.51310882339869
STARLINK-1226,45229,53.1593,0.0001579,15.37791132,451.5640278031142,453.721188003291,1 45229U 20012BD  26095.80295231  .00093812  00000+0  24695-2 0  9999,2 45229  53.1593 232.0984 0001579  45.2716 314.8416 15.37791132339578
STARLINK-1227,45230,53.1562,0.0001193,15.37726892,452.01791340880754,453.6477828145671,1 45230U 20012BE  26095.81660339  .00085968  00000+0  22710-2 0  9996,2 45230  53.1562 232.1956 0001193  23.2596 336.8462 15.37726892339699
STARLINK-1246,45235,53.1573,0.000126,15.30201625,474.34669571712584,476.07373921592716,1 45235U 20012BK  26095.86262125  .00006562  00000+0  23348-3 0  9999,2 45235  53.1573 273.0317 0001260  92.4007 267.7138 15.30201625339137
STARLINK-1270,45237,53.0454,0.0002911,15.52025785,408.8358460217587,412.78837219308207,1 45237U 20012BM  26096.25002315  .00175368  00000+0  28065-2 0  9999,2 45237  53.0454 215.4449 0002911 309.9159  11.6367 15.52025785  5900
STARLINK-1279,45360,53.0404,0.0003628,15.63444679,375.26452442613027,380.16657103476336,1 45360U 20019A   26096.25002315  .00133353  00000+0  13998-2 0  9990,2 45360  53.0404 324.4370 0003628 223.4848 153.4783 15.63444679  5835
STARLINK-1301,45361,53.042,0.0001495,15.68737738,361.5027021783735,363.5181557596352,1 45361U 20019B   26096.02725007  .00070081  00000+0  60198-3 0  9999,2 45361  53.0420 329.5555 0001495 278.4992  81.5854 15.68737738334892
STARLINK-1262,45366,53.1571,0.0001295,15.29360173,476.83595491810775,478.6116228624296,1 45366U 20019G   26096.24978247 -.00000044  00000+0  10810-4 0  9994,2 45366  53.1571  37.2505 0001295  99.9443 260.1703 15.29360173333976
STARLINK-1273,45367,53.0508,0.0004197,15.48703161,417.6653580596303,423.3721496994358,1 45367U 20019H   26096.19850289  .00115122  00000+0  20909-2 0  9995,2 45367  53.0508  23.5542 0004197 117.7021 242.4412 15.48703161334150
STARLINK-1277,45369,53.049,0.0006037,15.54108129,400.6516013375749,408.84125478861915,1 45369U 20019K   26096.25002315  .00180819  00000+0  26809-2 0  9993,2 45369  53.0490  20.1163 0006037 120.9439 134.1775 15.54108129  5905
STARLINK-1281,45370,53.1616,8.87e-05,15.30189171,474.63950785551606,475.85529824861806,1 45370U 20019L   26096.10364497  .00007318  00000+0  25905-3 0  9990,2 45370  53.1616  37.9524 0000887 101.1926 258.9175 15.30189171333952
STARLINK-1300,45374,53.1599,0.0001102,15.3019157,474.4849978235143,475.99548216720905,1 45374U 20019Q   26096.06044664  .00000083  00000+0  14942-4 0  9992,2 45374  53.1599  38.1600 0001102  87.7206 272.3921 15.30191570333949
STARLINK-1302,45375,53.0504,0.0002998,15.59308248,387.6289427419515,391.686912580577,1 45375U 20019R   26096.25002315  .00207317  00000+0  25258-2 0  9990,2 45375  53.0504  18.2904 0002998  97.2055 220.1479 15.59308248  5974
STARLINK-1304,45376,53.0487,0.0003553,15.53356624,404.52319599334805,409.3446673974113,1 45376U 20019S   26096.16757427  .00121106  00000+0  18624-2 0  9992,2 45376  53.0487  17.5271 0003553 115.3699 244.7678 15.53356624334230
STARLINK-1305,45377,53.0425,0.0005281,15.58868882,387.35478910623897,394.5042771785438,1 45377U 20019T   26096.25002315  .00166852  00000+0  20779-2 0  9993,2 45377  53.0425 358.8557 0005281 182.1384  65.5489 15.58868882  5912
STARLINK-1319,45379,53.0447,0.0002723,15.6889249,360.23180929533737,363.90252448462525,1 45379U 20019V   26096.22519308  .00069672  00000+0  59468-3 0  9997,2 45379  53.0447 354.1824 0002723 145.9083 214.2108 15.68892490334576
STARLINK-1266,45383,53.05,0.0005188,15.50141434,412.7877961700142,419.83771723757127,1 45383U 20019Z   26096.16953273  .00102042  00000+0  17655-2 0  9998,2 45383  53.0500   1.5748 0005188 123.7620 236.3883 15.50141434334456
STARLINK-1267,45384,53.0503,1.95e-05,15.55134151,401.6304889585099,401.89490504669357,1 45384U 20019AA  26096.11329728  .00134876  00000+0  19401-2 0  9997,2 45384  53.0503 354.9763 0000195 142.0968 218.0056 15.55134151334546
STARLINK-1272,45386,53.0427,0.0004049,15.61802301,379.7136206139521,385.18834476233314,1 45386U 20019AC  26096.25002315  .00127336  00000+0  14262-2 0  9997,2 45386  53.0427 335.7677 0004049 209.7419 215.8401 15.61802301  5885
STARLINK-1274,45387,53.0259,0.0003204,15.51896835,409.0128750686954,413.3634746407424,1 45387U 20019AD  26096.07308396  .00120480  00000+0  19529-2 0  9990,2 45387  53.0259 331.5980 0003204 273.3201  86.7441 15.51896835334864
STARLINK-1280,45388,53.0429,0.0001713,15.69339277,359.6334487517215,361.94220439730634,1 45388U 20019AE  26096.07130889  .00074949  00000+0  62736-3 0  9998,2 45388  53.0429 347.6366 0001713 173.1804 186.9236 15.69339277334630
STARLINK-1283,45389,53.0435,5.22e-05,15.64572805,374.1151596010195,374.82013152601576,1 45389U 20019AF  26096.05885630  .00060981  00000+0  62087-3 0  9998,2 45389  53.0435 336.4602 0000522 140.7099 219.3953 15.64572805334807
STARLINK-1284,45390,53.0478,0.0005066,15.56956521,393.03920436825865,399.9032374176677,1 45390U 20019AG  26096.00780836  .00124028  00000+0  16701-2 0  9991,2 45390  53.0478 359.0685 0005066 133.1544 226.9891 15.56956521334477
STARLINK-1297,45395,53.0458,0.0005732,15.60063042,383.59676078022494,391.3528581586015,1 45395U 20019AM  26096.25002315  .00157379  00000+0  18754-2 0  9997,2 45395  53.0458 357.0784 0005732 136.7732 340.7995 15.60063042  5923
STARLINK-1307,45397,53.0557,0.0002154,15.52755087,407.22429357750025,410.1480570014155,1 45397U 20019AP  26096.00322214  .00032667  00000+0  52465-3 0  9995,2 45397  53.0557 359.4847 0002154  94.8347 265.2908 15.52755087334290
STARLINK-1255,45399,53.0392,0.0001581,15.57450493,393.9678510188596,396.1095291720676,1 45399U 20019AR  26096.25002315  .00100814  00000+0  13384-2 0  9997,2 45399  53.0392 329.5810 0001581 191.8953  48.0766 15.57450493  5912
STARLINK-1260,45404,53.1606,0.000177,15.32269866,467.8298301924351,470.25373148085146,1 45404U 20019AW  26096.05456129  .00074744  00000+0  23541-2 0  9996,2 45404  53.1606   2.0250 0001770 162.3599 197.7465 15.32269866334163
STARLINK-1263,45405,53.1621,0.0001262,15.3018725,474.3882410499309,476.1180367209845,1 45405U 20019AX  26096.11835538  .00010125  00000+0  35366-3 0  9991,2 45405  53.1621   1.8690 0001262  85.9746 274.1399 15.30187250334177
STARLINK-1265,45406,53.1615,0.0001983,15.32310109,467.5641237419304,470.27966729989384,1 45406U 20019AY  26096.05756885  .00081037  00000+0  25459-2 0  9993,2 45406  53.1615   2.1149 0001983 153.8035 206.3067 15.32310109334161
